IRIDIUM 36              
1 24967U 97056C   24136.94885295  .00001249  00000+0  41690-3 0  9999
2 24967  86.3965 339.8351 0002045  91.2724 268.8708 14.36790449395165
IRIDIUM 39              
1 25042U 97069D   24136.87440385  .00001433  00000+0  38054-3 0  9992
2 25042  86.3954  21.3796 0017790 185.3432 174.7584 14.47933939391447
IRIDIUM 38              
1 25043U 97069E   24136.96652471  .00001309  00000+0  43333-3 0  9992
2 25043  86.3991  40.1978 0002001  35.1122 325.0207 14.37246896388882
IRIDIUM 42              
1 25077U 97077A   24136.77211173  .00001295  00000+0  44341-3 0  9991
2 25077  86.3992  45.9604 0002172  68.7944 291.3485 14.35549310384167
IRIDIUM 44              
1 25078U 97077B   24136.95796337  .00001291  00000+0  40917-3 0  9993
2 25078  86.3992  28.8791 0000597 124.4252 235.7003 14.39381815386546
IRIDIUM 45              
1 25104U 97082A   24136.79358071  .00015784  00000+0  89367-3 0  9994
2 25104  86.3757 237.4407 0160209 358.0218   2.0360 15.02558058391993
IRIDIUM 24              
1 25105U 97082B   24136.80832569  .00001433  00000+0  43846-3 0  9994
2 25105  86.3918 248.5703 0009786 317.9337  42.1110 14.41158202385960
IRIDIUM 51              
1 25262U 98018A   24136.85564614  .00018552  00000+0  88075-3 0  9999
2 25262  86.3958 247.3245 0145380 302.0327  56.6855 15.10151462386539
